*******************************************************************************
 Revised: January 26, 2022             Saturn                               699
 
 PHYSICAL DATA:
  Mass x10^26 (kg)      = 5.6834          Density (g/cm^3)       =  0.687+-.001
  Equat. radius (1 bar) = 60268+-4 km     Polar radius (km)      = 54364+-10
  Vol. Mean Radius (km) = 58232+-6        Flattening             =  0.09796
  Geometric Albedo      = 0.47            Rocky core mass (Mc/M) =  0.1027
  Sid. rot. period (III)= 10h 39m 22.4s   Sid. rot. rate (rad/s) =  0.000163785 
  Mean solar day, hrs   =~10.656         
  GM (km^3/s^2)         = 37931206.234    GM 1-sigma (km^3/s^2)  = +- 98
  Equ. grav, ge (m/s^2) = 10.44           Pol. grav, gp (m/s^2)  = 12.14+-0.01
  Vis. magnitude V(1,0) = -8.88          
  Vis. mag. (opposition)= +0.67           Obliquity to orbit     = 26.73 deg
  Sidereal orbit period = 29.447498 yr    Sidereal orbit period  = 10755.698 d
  Mean daily motion     = 0.0334979 deg/d Mean orbit velocity    =  9.68 km/s
  Atmos. temp. (1 bar)  = 134+-4 K        Escape speed, km/s    =  35.5          
  Aroche(ice)/Rp        =  2.71           Hill's sphere rad. Rp  = 1100
                                 Perihelion  Aphelion    Mean
  Solar Constant (W/m^2)         16.8        13.6        15.1
  Maximum Planetary IR (W/m^2)    4.7         4.5         4.6
  Minimum Planetary IR (W/m^2)    4.7         4.5         4.6
*******************************************************************************


*******************************************************************************
Ephemeris / WWW_USER Wed May 21 10:40:39 2025 Pasadena, USA      / Horizons
*******************************************************************************
Target body name: Saturn (699)                    {source: sat441l}
Center body name: Solar System Barycenter (0)     {source: DE441}
Center-site name: BODY CENTER
*******************************************************************************
Start time      : A.D. 1755-Jan-01 00:00:00.0000 TDB
Stop  time      : A.D. 1755-Jan-31 00:00:00.0000 TDB
Step-size       : 1440 minutes
*******************************************************************************
Center geodetic : 0.0, 0.0, 0.0                   {E-lon(deg),Lat(deg),Alt(km)}
Center cylindric: 0.0, 0.0, 0.0                   {E-lon(deg),Dxy(km),Dz(km)}
Center radii    : (undefined)
Output units    : KM-S
Calendar mode   : Mixed Julian/Gregorian
Output type     : GEOMETRIC cartesian states
Output format   : 3 (position, velocity, LT, range, range-rate)
Reference frame : Ecliptic of J2000.0
*******************************************************************************
JDTDB
   X     Y     Z
   VX    VY    VZ
   LT    RG    RR
*******************************************************************************
$$SOE
2362084.500000000 = A.D. 1755-Jan-25 00:00:00.0000 TDB 
 X = 6.046880286024704E+08 Y =-1.374235493393499E+09 Z = 6.886716263893843E+05
 VX= 8.298811903122218E+00 VY= 3.853535213799208E+00 VZ=-3.960943215047945E-01
 LT= 5.008097241739380E+03 RG= 1.501389782004069E+09 RR=-1.849922243061655E-01
2362085.500000000 = A.D. 1755-Jan-26 00:00:00.0000 TDB 
 X = 6.054049750106673E+08 Y =-1.373902345500906E+09 Z = 6.544468305740952E+05
 VX= 8.297156665829796E+00 VY= 3.858219132711498E+00 VZ=-3.961434077520605E-01
 LT= 5.008043908978003E+03 RG= 1.501373793244444E+09 RR=-1.851208859517651E-01
2362086.500000000 = A.D. 1755-Jan-27 00:00:00.0000 TDB 
 X = 6.061217805140623E+08 Y =-1.373568792018896E+09 Z = 6.202171288836002E+05
 VX= 8.295579370086624E+00 VY= 3.862968312338308E+00 VZ=-3.962342189732853E-01
 LT= 5.007990539339581E+03 RG= 1.501357793429359E+09 RR=-1.852770423280988E-01
2362087.500000000 = A.D. 1755-Jan-28 00:00:00.0000 TDB 
 X = 6.068384473863971E+08 Y =-1.373234817341374E+09 Z = 5.859741903545260E+05
 VX= 8.293897619955663E+00 VY= 3.867944932212788E+00 VZ=-3.964324162727570E-01
 LT= 5.007937088492856E+03 RG= 1.501341769268637E+09 RR=-1.856825693313314E-01
2362088.500000000 = A.D. 1755-Jan-29 00:00:00.0000 TDB 
 X = 6.075549616187710E+08 Y =-1.372900407467013E+09 Z = 5.517120631922483E+05
 VX= 8.292032362096242E+00 VY= 3.873043434527317E+00 VZ=-3.966776676570780E-01
 LT= 5.007883495087906E+03 RG= 1.501325702370034E+09 RR=-1.862729435178360E-01
2362089.500000000 = A.D. 1755-Jan-30 00:00:00.0000 TDB 
 X = 6.082713039550942E+08 Y =-1.372565556268861E+09 Z = 5.174293769227862E+05
 VX= 8.289947209806225E+00 VY= 3.878134771156249E+00 VZ=-3.968980051294895E-01
 LT= 5.007829714655273E+03 RG= 1.501309579401943E+09 RR=-1.869451717141924E-01
2362090.500000000 = A.D. 1755-Jan-31 00:00:00.0000 TDB 
 X = 6.089874596709454E+08 Y =-1.372230264905773E+09 Z = 4.831279815703630E+05
 VX= 8.287684824060140E+00 VY= 3.883233153710798E+00 VZ=-3.971083042536621E-01
 LT= 5.007775730969819E+03 RG= 1.501293395500189E+09 RR=-1.876953476433792E-01
